{
    "links": {
        "self": "http://www.neowsapp.com/rest/v1/neo/3759276?api_key=iIulBulltgU6a56xZRHN4H3l9WmuAYTsLGpBGhQ2"
    },
    "id": "3759276",
    "neo_reference_id": "3759276",
    "name": "(2016 RY19)",
    "designation": "2016 RY19",
    "nasa_jpl_url": "http://ssd.jpl.nasa.gov/sbdb.cgi?sstr=3759276",
    "absolute_magnitude_h": 25.1,
    "estimated_diameter": {
        "kilometers": {
            "estimated_diameter_min": 0.0253837029,
            "estimated_diameter_max": 0.0567596853
        },
        "meters": {
            "estimated_diameter_min": 25.3837029364,
            "estimated_diameter_max": 56.7596852866
        },
        "miles": {
            "estimated_diameter_min": 0.0157726969,
            "estimated_diameter_max": 0.0352688224
        },
        "feet": {
            "estimated_diameter_min": 83.279867942,
            "estimated_diameter_max": 186.2194458756
        }
    },
    "is_potentially_hazardous_asteroid": false,
    "close_approach_data": [
        {
            "close_approach_date": "2016-09-18",
            "close_approach_date_full": "2016-Sep-18 10:21",
            "epoch_date_close_approach": 1474194060000,
            "relative_velocity": {
                "kilometers_per_second": "10.14415163",
                "kilometers_per_hour": "36518.94586791",
                "miles_per_hour": "22691.4527810911"
            },
            "miss_distance": {
                "astronomical": "0.0666911241",
                "lunar": "25.9428472749",
                "kilometers": "9976850.113265667",
                "miles": "6199327.1937615246"
            },
            "orbiting_body": "Earth"
        }
    ],
    "orbital_data": {
        "orbit_id": "3",
        "orbit_determination_date": "2019-12-04 07:15:43",
        "first_observation_date": "2016-09-07",
        "last_observation_date": "2016-09-10",
        "data_arc_in_days": 3,
        "observations_used": 11,
        "orbit_uncertainty": "9",
        "minimum_orbit_intersection": ".0664301",
        "jupiter_tisserand_invariant": "3.133",
        "epoch_osculation": "2457639.5",
        "eccentricity": ".6142041421835817",
        "semi_major_axis": "2.553256542774748",
        "inclination": "7.778184212888224",
        "ascending_node_longitude": "150.7625544128711",
        "orbital_period": "1490.184723922249",
        "perihelion_distance": ".9850357981451665",
        "perihelion_argument": "234.6213772001419",
        "aphelion_distance": "4.12147728740433",
        "perihelion_time": "2457673.969259912533",
        "mean_anomaly": "351.6728890255627",
        "mean_motion": ".2415807880867682",
        "equinox": "J2000",
        "orbit_class": {
            "orbit_class_type": "APO",
            "orbit_class_description": "Near-Earth asteroid orbits which cross the Earth’s orbit similar to that of 1862 Apollo",
            "orbit_class_range": "a (semi-major axis) > 1.0 AU; q (perihelion) < 1.017 AU"
        }
    },
    "is_sentry_object": false
}